HULIANWANG DIGUI-108    
1 66918U 25285D   26196.94462079 -.00000104  00000+0  42717-4 0  9997
2 66918  50.0054  42.8590 0000964  40.7876 319.3068 13.29325833 29881
HULIANWANG DIGUI-109    
1 66919U 25285E   26196.93615663 -.00000093  00000+0  66579-4 0  9995
2 66919  50.0082  42.8596 0000927  48.9180 311.1772 13.29316615 29897
HULIANWANG DIGUI-110    
1 66920U 25285F   26196.85277581 -.00000091  00000+0  72229-4 0  9998
2 66920  50.0117  43.1433 0000917  40.6069 319.4872 13.29326504 29874
HULIANWANG DIGUI-111    
1 66921U 25285G   26196.84445825 -.00000105  00000+0  41494-4 0  9992
2 66921  50.0131  43.1300 0000922  41.0025 319.0917 13.29325949 29875
HULIANWANG DIGUI-112    
1 66922U 25285H   26196.91124213 -.00000098  00000+0  56781-4 0  9992
2 66922  50.0095  42.7525 0000962  38.9872 321.1070 13.29325932 29885
HULIANWANG DIGUI-113    
1 66923U 25285J   26196.90299361 -.00000102  00000+0  47181-4 0  9999
2 66923  50.0103  42.7265 0000962  38.2699 321.8242 13.29324332 29888
HULIANWANG DIGUI-114    
1 66953U 25287A   26196.62348305  .00000071  00000+0  13150-3 0  9998
2 66953  86.4930 272.7585 0002297  98.5406 261.5989 13.24413397 29108
HULIANWANG DIGUI-115    
1 66954U 25287B   26196.23788291  .00000070  00000+0  12986-3 0  9993
2 66954  86.4946 272.9179 0002568  96.7266 263.4161 13.24400859 29058
HULIANWANG DIGUI-116    
1 66955U 25287C   26196.75947546  .00000054  00000+0  91814-4 0  9991
2 66955  86.4885 272.6019 0002391  96.4660 263.6746 13.24413024 29127
HULIANWANG DIGUI-117    
1 66956U 25287D   26196.75195312  .00000042  00000+0  64485-4 0  9999
2 66956  86.4945 272.7335 0001013  63.7404 296.3834 13.24412693 29122
HULIANWANG DIGUI-118    
1 66957U 25287E   26196.74438777  .00000036  00000+0  48636-4 0  9997
2 66957  86.4922 272.6767 0002339  98.6804 261.4595 13.24412181 29128
HULIANWANG DIGUI-119    
1 67059U 25295A   26196.49915954 -.00000087  00000+0  80846-4 0  9995
2 67059  50.0040 284.2416 0001120 191.6420 168.4427 13.29324553 29260
HULIANWANG DIGUI-120    
1 67060U 25295B   26196.63282187 -.00000094  00000+0  64147-4 0  9992
2 67060  50.0046 283.6251 0001213 191.9199 168.1644 13.29324454 29287
HULIANWANG DIGUI-121    
1 67061U 25295C   26196.49081093 -.00000111  00000+0  27434-4 0  9998
2 67061  50.0019 284.1342 0001156 190.1579 169.9270 13.29325760 29267
HULIANWANG DIGUI-122    
1 67062U 25295D   26196.62438997 -.00000079  00000+0  97112-4 0  9996
2 67062  50.0039 283.5720 0001134 191.7774 168.3071 13.29324427 29286
HULIANWANG DIGUI-123    
1 67063U 25295E   26196.69127341 -.00000074  00000+0  10842-3 0  9991
2 67063  50.0041 283.2628 0001031 192.4608 167.6239 13.29324061 29297
