{"fetched_at":"2026-07-16T06:43:00.092Z","source":"https://celestrak.org/NORAD/elements/gp.php?NAME=HULIANWANG&FORMAT=JSON","constellation":"guowang","records":[{"OBJECT_NAME":"HULIANWANG DIGUI-108","OBJECT_ID":"2025-285D","EPOCH":"2026-07-15T22:40:15.236256","CLASSIFICATION_TYPE":"U","MEAN_MOTION":13.29325833,"ECCENTRICITY":0.00009642,"INCLINATION":50.0054,"RA_OF_ASC_NODE":42.859,"ARG_OF_PERICENTER":40.7876,"MEAN_ANOMALY":319.3068,"EPHEMERIS_TYPE":0,"NORAD_CAT_ID":66918,"ELEMENT_SET_NO":999,"REV_AT_EPOCH":2988,"BSTAR":0.000042716916,"MEAN_MOTION_DOT":-0.00000104,"MEAN_MOTION_DDOT":0},{"OBJECT_NAME":"HULIANWANG DIGUI-109","OBJECT_ID":"2025-285E","EPOCH":"2026-07-15T22:28:03.932832","CLASSIFICATION_TYPE":"U","MEAN_MOTION":13.29316615,"ECCENTRICITY":0.00009279,"INCLINATION":50.0082,"RA_OF_ASC_NODE":42.8596,"ARG_OF_PERICENTER":48.918,"MEAN_ANOMALY":311.1772,"EPHEMERIS_TYPE":0,"NORAD_CAT_ID":66919,"ELEMENT_SET_NO":999,"REV_AT_EPOCH":2989,"BSTAR":0.000066578715,"MEAN_MOTION_DOT":-9.3e-7,"MEAN_MOTION_DDOT":0},{"OBJECT_NAME":"HULIANWANG DIGUI-110","OBJECT_ID":"2025-285F","EPOCH":"2026-07-15T20:27:59.829984","CLASSIFICATION_TYPE":"U","MEAN_MOTION":13.29326504,"ECCENTRICITY":0.00009173,"INCLINATION":50.0117,"RA_OF_ASC_NODE":43.1433,"ARG_OF_PERICENTER":40.6069,"MEAN_ANOMALY":319.4872,"EPHEMERIS_TYPE":0,"NORAD_CAT_ID":66920,"ELEMENT_SET_NO":999,"REV_AT_EPOCH":2987,"BSTAR":0.000072228771,"MEAN_MOTION_DOT":-9.1e-7,"MEAN_MOTION_DDOT":0},{"OBJECT_NAME":"HULIANWANG DIGUI-111","OBJECT_ID":"2025-285G","EPOCH":"2026-07-15T20:16:01.192800","CLASSIFICATION_TYPE":"U","MEAN_MOTION":13.29325949,"ECCENTRICITY":0.00009223,"INCLINATION":50.0131,"RA_OF_ASC_NODE":43.13,"ARG_OF_PERICENTER":41.0025,"MEAN_ANOMALY":319.0917,"EPHEMERIS_TYPE":0,"NORAD_CAT_ID":66921,"ELEMENT_SET_NO":999,"REV_AT_EPOCH":2987,"BSTAR":0.00004149405,"MEAN_MOTION_DOT":-0.00000105,"MEAN_MOTION_DDOT":0},{"OBJECT_NAME":"HULIANWANG DIGUI-112","OBJECT_ID":"2025-285H","EPOCH":"2026-07-15T21:52:11.320032","CLASSIFICATION_TYPE":"U","MEAN_MOTION":13.29325932,"ECCENTRICITY":0.00009628,"INCLINATION":50.0095,"RA_OF_ASC_NODE":42.7525,"ARG_OF_PERICENTER":38.9872,"MEAN_ANOMALY":321.107,"EPHEMERIS_TYPE":0,"NORAD_CAT_ID":66922,"ELEMENT_SET_NO":999,"REV_AT_EPOCH":2988,"BSTAR":0.000056781049,"MEAN_MOTION_DOT":-9.8e-7,"MEAN_MOTION_DDOT":0},{"OBJECT_NAME":"HULIANWANG DIGUI-113","OBJECT_ID":"2025-285J","EPOCH":"2026-07-15T21:40:18.647904","CLASSIFICATION_TYPE":"U","MEAN_MOTION":13.29324332,"ECCENTRICITY":0.00009629,"INCLINATION":50.0103,"RA_OF_ASC_NODE":42.7265,"ARG_OF_PERICENTER":38.2699,"MEAN_ANOMALY":321.8242,"EPHEMERIS_TYPE":0,"NORAD_CAT_ID":66923,"ELEMENT_SET_NO":999,"REV_AT_EPOCH":2988,"BSTAR":0.000047180809,"MEAN_MOTION_DOT":-0.00000102,"MEAN_MOTION_DDOT":0},{"OBJECT_NAME":"HULIANWANG DIGUI-114","OBJECT_ID":"2025-287A","EPOCH":"2026-07-15T14:57:48.935520","CLASSIFICATION_TYPE":"U","MEAN_MOTION":13.24413397,"ECCENTRICITY":0.00022971,"INCLINATION":86.493,"RA_OF_ASC_NODE":272.7585,"ARG_OF_PERICENTER":98.5406,"MEAN_ANOMALY":261.5989,"EPHEMERIS_TYPE":0,"NORAD_CAT_ID":66953,"ELEMENT_SET_NO":999,"REV_AT_EPOCH":2910,"BSTAR":0.00013150349,"MEAN_MOTION_DOT":7.1e-7,"MEAN_MOTION_DDOT":0},{"OBJECT_NAME":"HULIANWANG DIGUI-115","OBJECT_ID":"2025-287B","EPOCH":"2026-07-15T05:42:33.083424","CLASSIFICATION_TYPE":"U","MEAN_MOTION":13.24400859,"ECCENTRICITY":0.00025687,"INCLINATION":86.4946,"RA_OF_ASC_NODE":272.9179,"ARG_OF_PERICENTER":96.7266,"MEAN_ANOMALY":263.4161,"EPHEMERIS_TYPE":0,"NORAD_CAT_ID":66954,"ELEMENT_SET_NO":999,"REV_AT_EPOCH":2905,"BSTAR":0.00012986216,"MEAN_MOTION_DOT":7e-7,"MEAN_MOTION_DDOT":0},{"OBJECT_NAME":"HULIANWANG DIGUI-116","OBJECT_ID":"2025-287C","EPOCH":"2026-07-15T18:13:38.679744","CLASSIFICATION_TYPE":"U","MEAN_MOTION":13.24413024,"ECCENTRICITY":0.00023912,"INCLINATION":86.4885,"RA_OF_ASC_NODE":272.6019,"ARG_OF_PERICENTER":96.466,"MEAN_ANOMALY":263.6746,"EPHEMERIS_TYPE":0,"NORAD_CAT_ID":66955,"ELEMENT_SET_NO":999,"REV_AT_EPOCH":2912,"BSTAR":0.000091814234,"MEAN_MOTION_DOT":5.4e-7,"MEAN_MOTION_DDOT":0},{"OBJECT_NAME":"HULIANWANG DIGUI-117","OBJECT_ID":"2025-287D","EPOCH":"2026-07-15T18:02:48.749568","CLASSIFICATION_TYPE":"U","MEAN_MOTION":13.24412693,"ECCENTRICITY":0.00010131,"INCLINATION":86.4945,"RA_OF_ASC_NODE":272.7335,"ARG_OF_PERICENTER":63.7404,"MEAN_ANOMALY":296.3834,"EPHEMERIS_TYPE":0,"NORAD_CAT_ID":66956,"ELEMENT_SET_NO":999,"REV_AT_EPOCH":2912,"BSTAR":0.000064485277,"MEAN_MOTION_DOT":4.2e-7,"MEAN_MOTION_DDOT":0},{"OBJECT_NAME":"HULIANWANG DIGUI-118","OBJECT_ID":"2025-287E","EPOCH":"2026-07-15T17:51:55.103328","CLASSIFICATION_TYPE":"U","MEAN_MOTION":13.24412181,"ECCENTRICITY":0.00023391,"INCLINATION":86.4922,"RA_OF_ASC_NODE":272.6767,"ARG_OF_PERICENTER":98.6804,"MEAN_ANOMALY":261.4595,"EPHEMERIS_TYPE":0,"NORAD_CAT_ID":66957,"ELEMENT_SET_NO":999,"REV_AT_EPOCH":2912,"BSTAR":0.00004863646,"MEAN_MOTION_DOT":3.6e-7,"MEAN_MOTION_DDOT":0},{"OBJECT_NAME":"HULIANWANG DIGUI-119","OBJECT_ID":"2025-295A","EPOCH":"2026-07-15T11:58:47.384256","CLASSIFICATION_TYPE":"U","MEAN_MOTION":13.29324553,"ECCENTRICITY":0.00011205,"INCLINATION":50.004,"RA_OF_ASC_NODE":284.2416,"ARG_OF_PERICENTER":191.642,"MEAN_ANOMALY":168.4427,"EPHEMERIS_TYPE":0,"NORAD_CAT_ID":67059,"ELEMENT_SET_NO":999,"REV_AT_EPOCH":2926,"BSTAR":0.000080846171,"MEAN_MOTION_DOT":-8.7e-7,"MEAN_MOTION_DDOT":0},{"OBJECT_NAME":"HULIANWANG DIGUI-120","OBJECT_ID":"2025-295B","EPOCH":"2026-07-15T15:11:15.809568","CLASSIFICATION_TYPE":"U","MEAN_MOTION":13.29324454,"ECCENTRICITY":0.00012134,"INCLINATION":50.0046,"RA_OF_ASC_NODE":283.6251,"ARG_OF_PERICENTER":191.9199,"MEAN_ANOMALY":168.1644,"EPHEMERIS_TYPE":0,"NORAD_CAT_ID":67060,"ELEMENT_SET_NO":999,"REV_AT_EPOCH":2928,"BSTAR":0.000064147499,"MEAN_MOTION_DOT":-9.4e-7,"MEAN_MOTION_DDOT":0},{"OBJECT_NAME":"HULIANWANG DIGUI-121","OBJECT_ID":"2025-295C","EPOCH":"2026-07-15T11:46:46.064352","CLASSIFICATION_TYPE":"U","MEAN_MOTION":13.2932576,"ECCENTRICITY":0.00011564,"INCLINATION":50.0019,"RA_OF_ASC_NODE":284.1342,"ARG_OF_PERICENTER":190.1579,"MEAN_ANOMALY":169.927,"EPHEMERIS_TYPE":0,"NORAD_CAT_ID":67061,"ELEMENT_SET_NO":999,"REV_AT_EPOCH":2926,"BSTAR":0.000027434122,"MEAN_MOTION_DOT":-0.00000111,"MEAN_MOTION_DDOT":0},{"OBJECT_NAME":"HULIANWANG DIGUI-122","OBJECT_ID":"2025-295D","EPOCH":"2026-07-15T14:59:07.293408","CLASSIFICATION_TYPE":"U","MEAN_MOTION":13.29324427,"ECCENTRICITY":0.00011346,"INCLINATION":50.0039,"RA_OF_ASC_NODE":283.572,"ARG_OF_PERICENTER":191.7774,"MEAN_ANOMALY":168.3071,"EPHEMERIS_TYPE":0,"NORAD_CAT_ID":67062,"ELEMENT_SET_NO":999,"REV_AT_EPOCH":2928,"BSTAR":0.000097111629,"MEAN_MOTION_DOT":-7.9e-7,"MEAN_MOTION_DDOT":0},{"OBJECT_NAME":"HULIANWANG DIGUI-123","OBJECT_ID":"2025-295E","EPOCH":"2026-07-15T16:35:26.022624","CLASSIFICATION_TYPE":"U","MEAN_MOTION":13.29324061,"ECCENTRICITY":0.00010313,"INCLINATION":50.0041,"RA_OF_ASC_NODE":283.2628,"ARG_OF_PERICENTER":192.4608,"MEAN_ANOMALY":167.6239,"EPHEMERIS_TYPE":0,"NORAD_CAT_ID":67063,"ELEMENT_SET_NO":999,"REV_AT_EPOCH":2929,"BSTAR":0.00010842221,"MEAN_MOTION_DOT":-7.4e-7,"MEAN_MOTION_DDOT":0}]}
